ALOS (DAICHI)           
1 28931U 06002A   25338.32002532  .00003313  00000+0  56770-3 0  9996
2 28931  98.1076 289.8673 0000781 107.5035 252.6256 14.69447043 59471
H-2A R/B                
1 28932U 06002B   25338.32807534  .00022790  00000+0  12009-2 0  9998
2 28932  98.2314 112.3914 0054537 205.0101 154.8485 15.14300461 79991
RESURS-DK 1             
1 29228U 06021A   25337.83382806  .00005630  00000+0  33226-3 0  9992
2 29228  69.9329 124.8507 0007823 265.1506  94.8767 15.12079711 73033
CZ-4B R/B               
1 29507U 06046C   25338.12133672  .00010687  00000+0  55631-3 0  9999
2 29507  97.5746  18.2838 0032813 237.3525 122.4541 15.15734794 45562
CZ-2C R/B               
1 31114U 07010B   25338.26437488  .00000372  00000+0  19033-3 0  9991
2 31114  98.3973  91.3418 0058527 210.7535 149.0209 14.20204586966173
COSMO-SKYMED 1          
1 31598U 07023A   25338.29202022  .00008095  00000+0  73266-3 0  9996
2 31598  97.8838 163.6365 0001359  79.8505 280.2869 14.95669801   647
COSMOS 2428             
1 31792U 07029A   25338.31341669  .00000078  00000+0  67743-4 0  9999
2 31792  70.9373  43.5716 0003191  36.0567 324.0769 14.12887372950626
SL-16 R/B               
1 31793U 07029B   25338.33259025 -.00000155  00000+0 -55615-4 0  9999
2 31793  70.9768  12.8308 0002420 265.4390 172.5806 14.14816170951884
KORONAS-FOTON           
1 33504U 09003A   25338.11829421  .00021848  00000+0  52869-3 0  9991
2 33504  82.4319  15.0380 0012730 135.9595 224.2667 15.40900716931017
CZ-2C R/B               
1 37731U 11030B   25337.87661097  .00002813  00000+0  36318-3 0  9997
2 37731  97.8396 292.1802 0051706 303.2715 113.8213 14.80851682775910
H-2A R/B                
1 38341U 12025E   25337.93528919  .00006374  00000+0  58747-3 0  9998
2 38341  98.4580 292.4875 0043948 266.0773  93.5420 14.94352695733915
SHIJIAN-16 (SJ-16)      
1 39358U 13057A   25338.35444056  .00002123  00000+0  21188-3 0  9996
2 39358  74.9736   5.5201 0017391 339.5698  20.4792 14.91953953657284
