CCSDS_OMM_VERS = 2.0
CREATION_DATE  = 
ORIGINATOR     = 

OBJECT_NAME    = ALOS (DAICHI)
OBJECT_ID      = 2006-002A
CENTER_NAME    = EARTH
REF_FRAME      = TEME
TIME_SYSTEM    = UTC
MEAN_ELEMENT_THEORY = SGP/SGP4

EPOCH          = 2025-12-04T07:40:50.187648
MEAN_MOTION    = 14.69447043
ECCENTRICITY   = .00007813
INCLINATION    = 98.1076
RA_OF_ASC_NODE = 289.8673
ARG_OF_PERICENTER = 107.5035
MEAN_ANOMALY   = 252.6256

EPHEMERIS_TYPE = 0
CLASSIFICATION_TYPE = U
NORAD_CAT_ID   = 28931
ELEMENT_SET_NO = 999
REV_AT_EPOCH   = 5947
BSTAR          = .56769962E-3
MEAN_MOTION_DOT = .3313E-4
MEAN_MOTION_DDOT = 0

CCSDS_OMM_VERS = 2.0
CREATION_DATE  = 
ORIGINATOR     = 

OBJECT_NAME    = H-2A R/B
OBJECT_ID      = 2006-002B
CENTER_NAME    = EARTH
REF_FRAME      = TEME
TIME_SYSTEM    = UTC
MEAN_ELEMENT_THEORY = SGP/SGP4

EPOCH          = 2025-12-04T07:52:25.709376
MEAN_MOTION    = 15.14300461
ECCENTRICITY   = .00545377
INCLINATION    = 98.2314
RA_OF_ASC_NODE = 112.3914
ARG_OF_PERICENTER = 205.0101
MEAN_ANOMALY   = 154.8485

EPHEMERIS_TYPE = 0
CLASSIFICATION_TYPE = U
NORAD_CAT_ID   = 28932
ELEMENT_SET_NO = 999
REV_AT_EPOCH   = 7999
BSTAR          = .12009044E-2
MEAN_MOTION_DOT = .2279E-3
MEAN_MOTION_DDOT = 0

CCSDS_OMM_VERS = 2.0
CREATION_DATE  = 
ORIGINATOR     = 

OBJECT_NAME    = RESURS-DK 1
OBJECT_ID      = 2006-021A
CENTER_NAME    = EARTH
REF_FRAME      = TEME
TIME_SYSTEM    = UTC
MEAN_ELEMENT_THEORY = SGP/SGP4

EPOCH          = 2025-12-03T20:00:42.744384
MEAN_MOTION    = 15.12079711
ECCENTRICITY   = .00078238
INCLINATION    = 69.9329
RA_OF_ASC_NODE = 124.8507
ARG_OF_PERICENTER = 265.1506
MEAN_ANOMALY   = 94.8767

EPHEMERIS_TYPE = 0
CLASSIFICATION_TYPE = U
NORAD_CAT_ID   = 29228
ELEMENT_SET_NO = 999
REV_AT_EPOCH   = 7303
BSTAR          = .33225758E-3
MEAN_MOTION_DOT = .563E-4
MEAN_MOTION_DDOT = 0

CCSDS_OMM_VERS = 2.0
CREATION_DATE  = 
ORIGINATOR     = 

OBJECT_NAME    = CZ-4B R/B
OBJECT_ID      = 2006-046C
CENTER_NAME    = EARTH
REF_FRAME      = TEME
TIME_SYSTEM    = UTC
MEAN_ELEMENT_THEORY = SGP/SGP4

EPOCH          = 2025-12-04T02:54:43.492608
MEAN_MOTION    = 15.15734794
ECCENTRICITY   = .00328132
INCLINATION    = 97.5746
RA_OF_ASC_NODE = 18.2838
ARG_OF_PERICENTER = 237.3525
MEAN_ANOMALY   = 122.4541

EPHEMERIS_TYPE = 0
CLASSIFICATION_TYPE = U
NORAD_CAT_ID   = 29507
ELEMENT_SET_NO = 999
REV_AT_EPOCH   = 4556
BSTAR          = .55630954E-3
MEAN_MOTION_DOT = .10687E-3
MEAN_MOTION_DDOT = 0

CCSDS_OMM_VERS = 2.0
CREATION_DATE  = 
ORIGINATOR     = 

OBJECT_NAME    = CZ-2C R/B
OBJECT_ID      = 2007-010B
CENTER_NAME    = EARTH
REF_FRAME      = TEME
TIME_SYSTEM    = UTC
MEAN_ELEMENT_THEORY = SGP/SGP4

EPOCH          = 2025-12-04T06:20:41.989632
MEAN_MOTION    = 14.20204586
ECCENTRICITY   = .00585277
INCLINATION    = 98.3973
RA_OF_ASC_NODE = 91.3418
ARG_OF_PERICENTER = 210.7535
MEAN_ANOMALY   = 149.0209

EPHEMERIS_TYPE = 0
CLASSIFICATION_TYPE = U
NORAD_CAT_ID   = 31114
ELEMENT_SET_NO = 999
REV_AT_EPOCH   = 96617
BSTAR          = .190333E-3
MEAN_MOTION_DOT = .372E-5
MEAN_MOTION_DDOT = 0

CCSDS_OMM_VERS = 2.0
CREATION_DATE  = 
ORIGINATOR     = 

OBJECT_NAME    = COSMO-SKYMED 1
OBJECT_ID      = 2007-023A
CENTER_NAME    = EARTH
REF_FRAME      = TEME
TIME_SYSTEM    = UTC
MEAN_ELEMENT_THEORY = SGP/SGP4

EPOCH          = 2025-12-04T07:00:30.547008
MEAN_MOTION    = 14.95669801
ECCENTRICITY   = .00013599
INCLINATION    = 97.8838
RA_OF_ASC_NODE = 163.6365
ARG_OF_PERICENTER = 79.8505
MEAN_ANOMALY   = 280.2869

EPHEMERIS_TYPE = 0
CLASSIFICATION_TYPE = U
NORAD_CAT_ID   = 31598
ELEMENT_SET_NO = 999
REV_AT_EPOCH   = 64
BSTAR          = .73265811E-3
MEAN_MOTION_DOT = .8095E-4
MEAN_MOTION_DDOT = 0

CCSDS_OMM_VERS = 2.0
CREATION_DATE  = 
ORIGINATOR     = 

OBJECT_NAME    = COSMOS 2428
OBJECT_ID      = 2007-029A
CENTER_NAME    = EARTH
REF_FRAME      = TEME
TIME_SYSTEM    = UTC
MEAN_ELEMENT_THEORY = SGP/SGP4

EPOCH          = 2025-12-04T07:31:19.202016
MEAN_MOTION    = 14.12887372
ECCENTRICITY   = .0003191
INCLINATION    = 70.9373
RA_OF_ASC_NODE = 43.5716
ARG_OF_PERICENTER = 36.0567
MEAN_ANOMALY   = 324.0769

EPHEMERIS_TYPE = 0
CLASSIFICATION_TYPE = U
NORAD_CAT_ID   = 31792
ELEMENT_SET_NO = 999
REV_AT_EPOCH   = 95062
BSTAR          = .67743415E-4
MEAN_MOTION_DOT = .78E-6
MEAN_MOTION_DDOT = 0

CCSDS_OMM_VERS = 2.0
CREATION_DATE  = 
ORIGINATOR     = 

OBJECT_NAME    = SL-16 R/B
OBJECT_ID      = 2007-029B
CENTER_NAME    = EARTH
REF_FRAME      = TEME
TIME_SYSTEM    = UTC
MEAN_ELEMENT_THEORY = SGP/SGP4

EPOCH          = 2025-12-04T07:58:55.797600
MEAN_MOTION    = 14.14816170
ECCENTRICITY   = .00024208
INCLINATION    = 70.9768
RA_OF_ASC_NODE = 12.8308
ARG_OF_PERICENTER = 265.4390
MEAN_ANOMALY   = 172.5806

EPHEMERIS_TYPE = 0
CLASSIFICATION_TYPE = U
NORAD_CAT_ID   = 31793
ELEMENT_SET_NO = 999
REV_AT_EPOCH   = 95188
BSTAR          = -.55615044E-4
MEAN_MOTION_DOT = -.155E-5
MEAN_MOTION_DDOT = 0

CCSDS_OMM_VERS = 2.0
CREATION_DATE  = 
ORIGINATOR     = 

OBJECT_NAME    = KORONAS-FOTON
OBJECT_ID      = 2009-003A
CENTER_NAME    = EARTH
REF_FRAME      = TEME
TIME_SYSTEM    = UTC
MEAN_ELEMENT_THEORY = SGP/SGP4

EPOCH          = 2025-12-04T02:50:20.619744
MEAN_MOTION    = 15.40900716
ECCENTRICITY   = .00127301
INCLINATION    = 82.4319
RA_OF_ASC_NODE = 15.0380
ARG_OF_PERICENTER = 135.9595
MEAN_ANOMALY   = 224.2667

EPHEMERIS_TYPE = 0
CLASSIFICATION_TYPE = U
NORAD_CAT_ID   = 33504
ELEMENT_SET_NO = 999
REV_AT_EPOCH   = 93101
BSTAR          = .52868535E-3
MEAN_MOTION_DOT = .21848E-3
MEAN_MOTION_DDOT = 0

CCSDS_OMM_VERS = 2.0
CREATION_DATE  = 
ORIGINATOR     = 

OBJECT_NAME    = CZ-2C R/B
OBJECT_ID      = 2011-030B
CENTER_NAME    = EARTH
REF_FRAME      = TEME
TIME_SYSTEM    = UTC
MEAN_ELEMENT_THEORY = SGP/SGP4

EPOCH          = 2025-12-03T21:02:19.187808
MEAN_MOTION    = 14.80851682
ECCENTRICITY   = .00517065
INCLINATION    = 97.8396
RA_OF_ASC_NODE = 292.1802
ARG_OF_PERICENTER = 303.2715
MEAN_ANOMALY   = 113.8213

EPHEMERIS_TYPE = 0
CLASSIFICATION_TYPE = U
NORAD_CAT_ID   = 37731
ELEMENT_SET_NO = 999
REV_AT_EPOCH   = 77591
BSTAR          = .36318311E-3
MEAN_MOTION_DOT = .2813E-4
MEAN_MOTION_DDOT = 0

CCSDS_OMM_VERS = 2.0
CREATION_DATE  = 
ORIGINATOR     = 

OBJECT_NAME    = H-2A R/B
OBJECT_ID      = 2012-025E
CENTER_NAME    = EARTH
REF_FRAME      = TEME
TIME_SYSTEM    = UTC
MEAN_ELEMENT_THEORY = SGP/SGP4

EPOCH          = 2025-12-03T22:26:48.986016
MEAN_MOTION    = 14.94352695
ECCENTRICITY   = .0043948
INCLINATION    = 98.4580
RA_OF_ASC_NODE = 292.4875
ARG_OF_PERICENTER = 266.0773
MEAN_ANOMALY   = 93.5420

EPHEMERIS_TYPE = 0
CLASSIFICATION_TYPE = U
NORAD_CAT_ID   = 38341
ELEMENT_SET_NO = 999
REV_AT_EPOCH   = 73391
BSTAR          = .58747E-3
MEAN_MOTION_DOT = .6374E-4
MEAN_MOTION_DDOT = 0

CCSDS_OMM_VERS = 2.0
CREATION_DATE  = 
ORIGINATOR     = 

OBJECT_NAME    = SHIJIAN-16 (SJ-16)
OBJECT_ID      = 2013-057A
CENTER_NAME    = EARTH
REF_FRAME      = TEME
TIME_SYSTEM    = UTC
MEAN_ELEMENT_THEORY = SGP/SGP4

EPOCH          = 2025-12-04T08:30:23.664384
MEAN_MOTION    = 14.91953953
ECCENTRICITY   = .00173916
INCLINATION    = 74.9736
RA_OF_ASC_NODE = 5.5201
ARG_OF_PERICENTER = 339.5698
MEAN_ANOMALY   = 20.4792

EPHEMERIS_TYPE = 0
CLASSIFICATION_TYPE = U
NORAD_CAT_ID   = 39358
ELEMENT_SET_NO = 999
REV_AT_EPOCH   = 65728
BSTAR          = .21188426E-3
MEAN_MOTION_DOT = .2123E-4
MEAN_MOTION_DDOT = 0

